{
  "norad_id": 67371,
  "name": "UMBRA-12",
  "history": [
    {
      "epoch": "2026-03-28T22:27:10.835712Z",
      "apogee_km": 607.5880630059,
      "perigee_km": 597.2811094474046,
      "latitude_deg": -2.4456239979516237e-05,
      "longitude_deg": -75.28139375910078,
      "height_km": 602.0509642030422,
      "semi_major_axis_km": 6980.571586226652,
      "eccentricity": 0.00073826,
      "inclination_deg": 97.8016,
      "raan_deg": 87.8626,
      "arg_perigee_deg": 48.5914,
      "mean_anomaly_deg": 311.5936,
      "mean_motion_rev_day": 14.88559793
    },
    {
      "epoch": "2026-03-29T00:03:58.661856Z",
      "apogee_km": 607.5814205895058,
      "perigee_km": 597.2781040483233,
      "latitude_deg": 2.1935199669653278e-05,
      "longitude_deg": -99.4806309666923,
      "height_km": 602.0388139928122,
      "semi_major_axis_km": 6980.566762318915,
      "eccentricity": 0.000738,
      "inclination_deg": 97.8016,
      "raan_deg": 87.9289,
      "arg_perigee_deg": 48.4645,
      "mean_anomaly_deg": 311.7204,
      "mean_motion_rev_day": 14.88561336
    },
    {
      "epoch": "2026-03-30T00:15:55.562400Z",
      "apogee_km": 607.4991473981818,
      "perigee_km": 597.2336191227587,
      "latitude_deg": 6.926778894630669e-06,
      "longitude_deg": -102.46863732846282,
      "height_km": 601.8270531752261,
      "semi_major_axis_km": 6980.5033832604695,
      "eccentricity": 0.0007353,
      "inclination_deg": 97.8016,
      "raan_deg": 88.9218,
      "arg_perigee_deg": 46.0098,
      "mean_anomaly_deg": 314.1724,
      "mean_motion_rev_day": 14.88581609
    },
    {
      "epoch": "2026-03-30T06:43:06.574944Z",
      "apogee_km": 607.4799126347143,
      "perigee_km": 597.2310139902302,
      "latitude_deg": 9.061255389889575e-06,
      "longitude_deg": 160.73525937364738,
      "height_km": 601.7782049720552,
      "semi_major_axis_km": 6980.492463312472,
      "eccentricity": 0.00073411,
      "inclination_deg": 97.8016,
      "raan_deg": 89.1866,
      "arg_perigee_deg": 45.3243,
      "mean_anomaly_deg": 314.8571,
      "mean_motion_rev_day": 14.88585102
    },
    {
      "epoch": "2026-03-30T13:10:17.456160Z",
      "apogee_km": 607.4522534607313,
      "perigee_km": 597.2190201846015,
      "latitude_deg": -2.6918350248030007e-05,
      "longitude_deg": 63.93970996757713,
      "height_km": 601.7171047599417,
      "semi_major_axis_km": 6980.472636822667,
      "eccentricity": 0.00073299,
      "inclination_deg": 97.8016,
      "raan_deg": 89.4514,
      "arg_perigee_deg": 44.5801,
      "mean_anomaly_deg": 315.6004,
      "mean_motion_rev_day": 14.88591444
    },
    {
      "epoch": "2026-03-30T22:51:03.658752Z",
      "apogee_km": 607.4016047648802,
      "perigee_km": 597.2231323226315,
      "latitude_deg": 1.112992821102446e-05,
      "longitude_deg": -81.25292852018863,
      "height_km": 601.6590316589427,
      "semi_major_axis_km": 6980.449368543756,
      "eccentricity": 0.00072907,
      "inclination_deg": 97.8016,
      "raan_deg": 89.8488,
      "arg_perigee_deg": 43.6984,
      "mean_anomaly_deg": 316.4809,
      "mean_motion_rev_day": 14.88598887
    },
    {
      "epoch": "2026-03-31T21:26:10.872096Z",
      "apogee_km": 607.2906764940772,
      "perigee_km": 597.2430831494612,
      "latitude_deg": 1.79083810191157e-05,
      "longitude_deg": -60.03363056792191,
      "height_km": 601.5077815767125,
      "semi_major_axis_km": 6980.403879821769,
      "eccentricity": 0.0007197,
      "inclination_deg": 97.8017,
      "raan_deg": 90.7757,
      "arg_perigee_deg": 41.098,
      "mean_anomaly_deg": 319.0778,
      "mean_motion_rev_day": 14.88613438
    },
    {
      "epoch": "2026-04-01T10:20:31.780032Z",
      "apogee_km": 607.2310425391561,
      "perigee_km": 597.2714246074947,
      "latitude_deg": 2.9909804153197415e-05,
      "longitude_deg": 106.37892938680335,
      "height_km": 601.4309671845027,
      "semi_major_axis_km": 6980.388233573325,
      "eccentricity": 0.0007134,
      "inclination_deg": 97.8017,
      "raan_deg": 91.3054,
      "arg_perigee_deg": 39.4111,
      "mean_anomaly_deg": 320.7624,
      "mean_motion_rev_day": 14.88618443
    },
    {
      "epoch": "2026-04-02T10:32:25.272096Z",
      "apogee_km": 607.0251195615183,
      "perigee_km": 597.3482968048629,
      "latitude_deg": 2.5769181553679266e-05,
      "longitude_deg": 103.40526291660667,
      "height_km": 601.3189827743579,
      "semi_major_axis_km": 6980.32370818319,
      "eccentricity": 0.00069315,
      "inclination_deg": 97.8018,
      "raan_deg": 92.2984,
      "arg_perigee_deg": 36.3722,
      "mean_anomaly_deg": 323.7965,
      "mean_motion_rev_day": 14.88639084
    },
    {
      "epoch": "2026-04-02T21:49:57.852768Z",
      "apogee_km": 606.9685982136025,
      "perigee_km": 597.3399844063697,
      "latitude_deg": -8.899149532111578e-06,
      "longitude_deg": -65.98074654276233,
      "height_km": 601.2308609086514,
      "semi_major_axis_km": 6980.291291309986,
      "eccentricity": 0.0006897,
      "inclination_deg": 97.8018,
      "raan_deg": 92.7619,
      "arg_perigee_deg": 34.8292,
      "mean_anomaly_deg": 325.3375,
      "mean_motion_rev_day": 14.88649454
    },
    {
      "epoch": "2026-04-03T17:11:27.358368Z",
      "apogee_km": 606.8750243723534,
      "perigee_km": 597.3302446960915,
      "latitude_deg": -2.2399854161853017e-05,
      "longitude_deg": 3.645802446064085,
      "height_km": 601.0782727203884,
      "semi_major_axis_km": 6980.239634534222,
      "eccentricity": 0.0006837,
      "inclination_deg": 97.8019,
      "raan_deg": 93.5564,
      "arg_perigee_deg": 31.8583,
      "mean_anomaly_deg": 328.3046,
      "mean_motion_rev_day": 14.88665979
    },
    {
      "epoch": "2026-04-04T20:36:52.811712Z",
      "apogee_km": 606.7354718368033,
      "perigee_km": 597.3443418263532,
      "latitude_deg": 4.293735493061978e-05,
      "longitude_deg": -47.71061575578195,
      "height_km": 600.9700722902079,
      "semi_major_axis_km": 6980.176906831578,
      "eccentricity": 0.0006727,
      "inclination_deg": 97.8019,
      "raan_deg": 94.6823,
      "arg_perigee_deg": 29.182,
      "mean_anomaly_deg": 330.9772,
      "mean_motion_rev_day": 14.88686046
    },
    {
      "epoch": "2026-04-05T14:21:33.316992Z",
      "apogee_km": 606.642154134136,
      "perigee_km": 597.3615011516777,
      "latitude_deg": -6.572970454104865e-05,
      "longitude_deg": 46.12038164387209,
      "height_km": 600.9197112704766,
      "semi_major_axis_km": 6980.138827642906,
      "eccentricity": 0.00066479,
      "inclination_deg": 97.802,
      "raan_deg": 95.4108,
      "arg_perigee_deg": 27.5999,
      "mean_anomaly_deg": 332.5569,
      "mean_motion_rev_day": 14.88698228
    },
    {
      "epoch": "2026-04-05T20:48:42.485760Z",
      "apogee_km": 606.6049274285251,
      "perigee_km": 597.3758030262206,
      "latitude_deg": 1.3688447224078256e-05,
      "longitude_deg": -50.66782954433289,
      "height_km": 600.9158954093876,
      "semi_major_axis_km": 6980.127365227372,
      "eccentricity": 0.0006611,
      "inclination_deg": 97.8021,
      "raan_deg": 95.6758,
      "arg_perigee_deg": 27.1873,
      "mean_anomaly_deg": 332.9689,
      "mean_motion_rev_day": 14.88701895
    },
    {
      "epoch": "2026-04-06T00:02:17.027808Z",
      "apogee_km": 606.5848378532701,
      "perigee_km": 597.379038190671,
      "latitude_deg": -6.74882085688887e-06,
      "longitude_deg": -99.06185006021617,
      "height_km": 600.9026777920562,
      "semi_major_axis_km": 6980.11893802197,
      "eccentricity": 0.00065943,
      "inclination_deg": 97.8021,
      "raan_deg": 95.8082,
      "arg_perigee_deg": 26.7684,
      "mean_anomaly_deg": 333.3872,
      "mean_motion_rev_day": 14.88704591
    },
    {
      "epoch": "2026-04-07T11:31:36.217920Z",
      "apogee_km": 606.4420612151553,
      "perigee_km": 597.401628600408,
      "latitude_deg": 2.4067227985805638e-05,
      "longitude_deg": 88.60761541619831,
      "height_km": 600.7974439452997,
      "semi_major_axis_km": 6980.058844907781,
      "eccentricity": 0.00064759,
      "inclination_deg": 97.8026,
      "raan_deg": 97.2651,
      "arg_perigee_deg": 23.1723,
      "mean_anomaly_deg": 336.9785,
      "mean_motion_rev_day": 14.88723816
    },
    {
      "epoch": "2026-04-08T13:20:10.905792Z",
      "apogee_km": 606.3390292418153,
      "perigee_km": 597.4315436012212,
      "latitude_deg": 8.088328646726226e-05,
      "longitude_deg": 61.4628075662668,
      "height_km": 600.7196540619823,
      "semi_major_axis_km": 6980.022286421518,
      "eccentricity": 0.00063807,
      "inclination_deg": 97.8029,
      "raan_deg": 98.3248,
      "arg_perigee_deg": 19.5293,
      "mean_anomaly_deg": 340.6168,
      "mean_motion_rev_day": 14.88735512
    },
    {
      "epoch": "2026-04-09T15:08:44.873952Z",
      "apogee_km": 606.2066729076241,
      "perigee_km": 597.4872769261574,
      "latitude_deg": -9.892428611541928e-06,
      "longitude_deg": 34.320726874129065,
      "height_km": 600.6940726325814,
      "semi_major_axis_km": 6979.9839749168905,
      "eccentricity": 0.0006246,
      "inclination_deg": 97.8031,
      "raan_deg": 99.3842,
      "arg_perigee_deg": 16.2516,
      "mean_anomaly_deg": 343.89,
      "mean_motion_rev_day": 14.88747769
    },
    {
      "epoch": "2026-04-10T12:06:56.990592Z",
      "apogee_km": 606.1060731661019,
      "perigee_km": 597.5332903695562,
      "latitude_deg": -3.60856331694824e-05,
      "longitude_deg": 79.76973353755105,
      "height_km": 600.6809466983174,
      "semi_major_axis_km": 6979.956681767829,
      "eccentricity": 0.0006141,
      "inclination_deg": 97.8029,
      "raan_deg": 100.2449,
      "arg_perigee_deg": 13.2709,
      "mean_anomaly_deg": 346.8668,
      "mean_motion_rev_day": 14.88756501
    },
    {
      "epoch": "2026-04-11T17:09:03.988800Z",
      "apogee_km": 605.9930022176877,
      "perigee_km": 597.5891688027341,
      "latitude_deg": -1.1153891342189361e-05,
      "longitude_deg": 4.24013217961356,
      "height_km": 600.681097341606,
      "semi_major_axis_km": 6979.928085510211,
      "eccentricity": 0.000602,
      "inclination_deg": 97.8026,
      "raan_deg": 101.4369,
      "arg_perigee_deg": 9.5336,
      "mean_anomaly_deg": 350.5994,
      "mean_motion_rev_day": 14.8876565
    },
    {
      "epoch": "2026-04-13T06:15:05.443488Z",
      "apogee_km": 605.8484365260283,
      "perigee_km": 597.6805557952221,
      "latitude_deg": -2.094872208182532e-05,
      "longitude_deg": 167.7332120590196,
      "height_km": 600.7273311395386,
      "semi_major_axis_km": 6979.901496160625,
      "eccentricity": 0.0005851,
      "inclination_deg": 97.8022,
      "raan_deg": 102.9597,
      "arg_perigee_deg": 4.3883,
      "mean_anomaly_deg": 355.7384,
      "mean_motion_rev_day": 14.88774157
    },
    {
      "epoch": "2026-04-14T20:57:53.042112Z",
      "apogee_km": 605.6969762630843,
      "perigee_km": 597.7650542505462,
      "latitude_deg": -1.1912686455853254e-06,
      "longitude_deg": -52.96571200636788,
      "height_km": 600.8006619261205,
      "semi_major_axis_km": 6979.868015256815,
      "eccentricity": 0.0005682,
      "inclination_deg": 97.8017,
      "raan_deg": 104.549,
      "arg_perigee_deg": 359.7401,
      "mean_anomaly_deg": 0.3812,
      "mean_motion_rev_day": 14.88784869
    }
  ]
}